{
  "norad_id": 49290,
  "name": "ONEWEB-0364",
  "history": [
    {
      "epoch": "2026-03-28T19:47:21.220224Z",
      "apogee_km": 1183.0554731541151,
      "perigee_km": 1180.4976519993525,
      "latitude_deg": 2.9851383538551493e-06,
      "longitude_deg": 167.41973190254723,
      "height_km": 1184.6277284551618,
      "semi_major_axis_km": 7559.913562576734,
      "eccentricity": 0.00016917,
      "inclination_deg": 87.9139,
      "raan_deg": 290.4976,
      "arg_perigee_deg": 87.7984,
      "mean_anomaly_deg": 272.3343,
      "mean_motion_rev_day": 13.20770977
    },
    {
      "epoch": "2026-03-29T01:14:37.334400Z",
      "apogee_km": 1183.0494128346,
      "perigee_km": 1180.4971871173293,
      "latitude_deg": -5.6697821659984886e-05,
      "longitude_deg": 85.33317992131123,
      "height_km": 1184.6274630663474,
      "semi_major_axis_km": 7559.910299975964,
      "eccentricity": 0.0001688,
      "inclination_deg": 87.9138,
      "raan_deg": 290.4522,
      "arg_perigee_deg": 87.9275,
      "mean_anomaly_deg": 272.2051,
      "mean_motion_rev_day": 13.20771832
    },
    {
      "epoch": "2026-03-30T00:52:47.409312Z",
      "apogee_km": 1183.0531231503537,
      "perigee_km": 1180.4978727260504,
      "latitude_deg": 1.8146688506406034e-05,
      "longitude_deg": 89.62360291246279,
      "height_km": 1184.6345222415466,
      "semi_major_axis_km": 7559.912497938201,
      "eccentricity": 0.000169,
      "inclination_deg": 87.9137,
      "raan_deg": 290.2553,
      "arg_perigee_deg": 88.1488,
      "mean_anomaly_deg": 271.9839,
      "mean_motion_rev_day": 13.20771256
    },
    {
      "epoch": "2026-03-30T06:20:03.516576Z",
      "apogee_km": 1183.044477614667,
      "perigee_km": 1180.5016262695954,
      "latitude_deg": 1.2512899215938857e-05,
      "longitude_deg": 7.537082073640938,
      "height_km": 1184.6313167068106,
      "semi_major_axis_km": 7559.910051942131,
      "eccentricity": 0.00016818,
      "inclination_deg": 87.9137,
      "raan_deg": 290.2099,
      "arg_perigee_deg": 88.1048,
      "mean_anomaly_deg": 272.0278,
      "mean_motion_rev_day": 13.20771897
    },
    {
      "epoch": "2026-03-30T13:36:25.120224Z",
      "apogee_km": 1183.0570375746856,
      "perigee_km": 1180.4936225018173,
      "latitude_deg": -4.4797004297920545e-05,
      "longitude_deg": -101.91211270185507,
      "height_km": 1184.6357476811236,
      "semi_major_axis_km": 7559.912330038252,
      "eccentricity": 0.00016954,
      "inclination_deg": 87.9137,
      "raan_deg": 290.1494,
      "arg_perigee_deg": 88.217,
      "mean_anomaly_deg": 271.9157,
      "mean_motion_rev_day": 13.207713
    },
    {
      "epoch": "2026-03-30T19:03:41.253408Z",
      "apogee_km": 1183.0575990782854,
      "perigee_km": 1180.4919162259748,
      "latitude_deg": 3.656712783924928e-05,
      "longitude_deg": 176.00126131680628,
      "height_km": 1184.6390780225674,
      "semi_major_axis_km": 7559.91175765213,
      "eccentricity": 0.00016969,
      "inclination_deg": 87.9137,
      "raan_deg": 290.104,
      "arg_perigee_deg": 88.3936,
      "mean_anomaly_deg": 271.7392,
      "mean_motion_rev_day": 13.2077145
    },
    {
      "epoch": "2026-03-31T18:41:51.215136Z",
      "apogee_km": 1183.056003340539,
      "perigee_km": 1180.4886581318206,
      "latitude_deg": 2.3599660227985377e-05,
      "longitude_deg": -179.70774517595657,
      "height_km": 1184.6372522176052,
      "semi_major_axis_km": 7559.909330736179,
      "eccentricity": 0.0001698,
      "inclination_deg": 87.9135,
      "raan_deg": 289.9072,
      "arg_perigee_deg": 88.4215,
      "mean_anomaly_deg": 271.7113,
      "mean_motion_rev_day": 13.20772086
    },
    {
      "epoch": "2026-04-01T20:09:06.624864Z",
      "apogee_km": 1183.056762520975,
      "perigee_km": 1180.49092877996,
      "latitude_deg": 2.840877660549267e-05,
      "longitude_deg": 157.2204789901887,
      "height_km": 1184.6598789969898,
      "semi_major_axis_km": 7559.910845650467,
      "eccentricity": 0.0001697,
      "inclination_deg": 87.9134,
      "raan_deg": 289.695,
      "arg_perigee_deg": 89.3635,
      "mean_anomaly_deg": 270.7693,
      "mean_motion_rev_day": 13.20771689
    },
    {
      "epoch": "2026-04-02T19:47:16.619424Z",
      "apogee_km": 1183.046492546422,
      "perigee_km": 1180.4972912680705,
      "latitude_deg": 5.612951600039293e-05,
      "longitude_deg": 161.51123623959154,
      "height_km": 1184.6513384584516,
      "semi_major_axis_km": 7559.908891907246,
      "eccentricity": 0.0001686,
      "inclination_deg": 87.9133,
      "raan_deg": 289.4981,
      "arg_perigee_deg": 89.0626,
      "mean_anomaly_deg": 271.0701,
      "mean_motion_rev_day": 13.20772201
    },
    {
      "epoch": "2026-04-02T21:36:22.031136Z",
      "apogee_km": 1183.0459308847703,
      "perigee_km": 1180.4997532499629,
      "latitude_deg": 7.778911760727706e-05,
      "longitude_deg": 134.14881869259617,
      "height_km": 1184.6581847011337,
      "semi_major_axis_km": 7559.909842067366,
      "eccentricity": 0.0001684,
      "inclination_deg": 87.9131,
      "raan_deg": 289.4829,
      "arg_perigee_deg": 89.3269,
      "mean_anomaly_deg": 270.8058,
      "mean_motion_rev_day": 13.20771952
    },
    {
      "epoch": "2026-04-03T13:58:10.568928Z",
      "apogee_km": 1183.0622220741288,
      "perigee_km": 1180.4873161255737,
      "latitude_deg": -3.8986843995844095e-05,
      "longitude_deg": -112.11185067099869,
      "height_km": 1184.6535979675123,
      "semi_major_axis_km": 7559.911769099851,
      "eccentricity": 0.0001703,
      "inclination_deg": 87.9133,
      "raan_deg": 289.3465,
      "arg_perigee_deg": 89.0452,
      "mean_anomaly_deg": 271.0876,
      "mean_motion_rev_day": 13.20771447
    },
    {
      "epoch": "2026-04-04T13:36:20.522880Z",
      "apogee_km": 1183.0709440930768,
      "perigee_km": 1180.4718475865866,
      "latitude_deg": -2.4916980949517866e-05,
      "longitude_deg": -107.82102559697827,
      "height_km": 1184.6633117767242,
      "semi_major_axis_km": 7559.908395839831,
      "eccentricity": 0.0001719,
      "inclination_deg": 87.913,
      "raan_deg": 289.1495,
      "arg_perigee_deg": 89.6324,
      "mean_anomaly_deg": 270.5006,
      "mean_motion_rev_day": 13.20772331
    }
  ]
}